NORAD_CAT_ID,OBJECT_NAME,OBJECT_TYPE,EPOCH,MEAN_MOTION,ECCENTRICITY,INCLINATION,RA_OF_ASC_NODE,ARG_OF_PERICENTER,MEAN_ANOMALY,BSTAR,MEAN_MOTION_DOT,MEAN_MOTION_DDOT,TLE_LINE0,TLE_LINE1,TLE_LINE2,SEMIMAJOR_AXIS,PERIOD,APOGEE,PERIGEE,DECAYED
51735.0,STARLINK-3517,PAYLOAD,2024-06-21 11:48:37,15.0883612,0.000133,53.2187,250.2338,100.3871,259.7271,5.1479e-05,5.31e-06,0.0,0 STARLINK-3517,1 51735U 22016X   24173.49209494  .00000531  00000-0  51479-4 0  9999,2 51735  53.2187 250.2338 0001330 100.3871 259.7271 15.08836120130145,6917.892,95.438,540.677,538.837,0.0
51735.0,STARLINK-3517,PAYLOAD,2024-06-22 11:39:24,15.08837692,0.0001233,53.218,245.7744,96.1944,263.9189,-1.1754e-05,-4.75e-06,0.0,0 STARLINK-3517,1 51735U 22016X   24174.48569754 -.00000475  00000-0 -11754-4 0  9998,2 51735  53.2180 245.7744 0001233  96.1944 263.9189 15.08837692129185,6917.887,95.438,540.605,538.899,0.0
51735.0,STARLINK-3517,PAYLOAD,2024-06-22 14:50:10,15.08838804,0.0001244,53.218,245.1791,97.9719,262.1415,1.267e-06,-2.68e-06,0.0,0 STARLINK-3517,1 51735U 22016X   24174.61817636 -.00000268  00000-0  12670-5 0  9996,2 51735  53.2180 245.1791 0001244  97.9719 262.1415 15.08838804130318,6917.884,95.438,540.61,538.888,0.0
51735.0,STARLINK-3517,PAYLOAD,2024-06-23 09:54:48,15.08836689,0.0001113,53.2164,241.6097,99.8172,260.2946,5.6056e-05,6.04e-06,0.0,0 STARLINK-3517,1 51735U 22016X   24175.41305641  .00000604  00000-0  56056-4 0  9991,2 51735  53.2164 241.6097 0001113  99.8172 260.2946 15.08836689129325,6917.891,95.438,540.525,538.986,0.0
51735.0,STARLINK-3517,PAYLOAD,2024-06-24 03:24:02,15.08840679,0.0001113,53.2165,238.3383,87.1692,272.9427,9.5348e-05,1.23e-05,0.0,0 STARLINK-3517,1 51735U 22016X   24176.14169291  .00001230  00000-0  95348-4 0  9994,2 51735  53.2165 238.3383 0001113  87.1692 272.9427 15.08840679130548,6917.878,95.438,540.513,538.973,0.0
51735.0,STARLINK-3517,PAYLOAD,2024-06-24 09:45:34,15.08840515,0.0001119,53.2166,237.1487,88.8904,271.2216,8.8748e-05,1.125e-05,0.0,0 STARLINK-3517,1 51735U 22016X   24176.40665318  .00001125  00000-0  88748-4 0  9993,2 51735  53.2166 237.1487 0001119  88.8904 271.2216 15.08840515129478,6917.879,95.438,540.518,538.97,0.0
51735.0,STARLINK-3517,PAYLOAD,2024-06-25 11:11:45,15.08837672,0.0001165,53.2162,232.39,97.949,262.1635,-2.4104e-06,-3.26e-06,0.0,0 STARLINK-3517,1 51735U 22016X   24177.46649802 -.00000326  00000-0 -24104-5 0  9991,2 51735  53.2162 232.3900 0001165  97.9490 262.1635 15.08837672130749,6917.888,95.438,540.558,538.947,0.0
51735.0,STARLINK-3517,PAYLOAD,2024-06-26 09:27:09,15.08841319,0.0001174,53.2157,228.2288,93.6013,266.5113,3.9864e-05,3.47e-06,0.0,0 STARLINK-3517,1 51735U 22016X   24178.39385444  .00000347  00000-0  39864-4 0  9992,2 51735  53.2157 228.2288 0001174  93.6013 266.5113 15.08841319129773,6917.876,95.437,540.554,538.929,0.0
51735.0,STARLINK-3517,PAYLOAD,2024-06-27 09:17:56,15.08837537,0.0001219,53.2155,223.7659,86.2326,273.8805,5.5584e-05,5.97e-06,0.0,0 STARLINK-3517,1 51735U 22016X   24179.38745694  .00000597  00000-0  55584-4 0  9993,2 51735  53.2155 223.7659 0001219  86.2326 273.8805 15.08837537129921,6917.888,95.438,540.596,538.91,0.0
51735.0,STARLINK-3517,PAYLOAD,2024-06-28 09:08:42,15.08844236,0.0001137,53.2144,219.3082,85.6069,274.5053,9.0141e-05,1.147e-05,0.0,0 STARLINK-3517,1 51735U 22016X   24180.38105246  .00001147  00000-0  90141-4 0  9998,2 51735  53.2144 219.3082 0001137  85.6069 274.5053 15.08844236130071,6917.867,95.437,540.519,538.946,0.0
51735.0,STARLINK-3517,PAYLOAD,2024-06-28 13:54:51,15.08851746,0.0001249,53.2151,218.4163,88.171,271.9426,0.00012776,1.747e-05,0.0,0 STARLINK-3517,1 51735U 22016X   24180.57976634  .00001747  00000-0  12776-3 0  9999,2 51735  53.2151 218.4163 0001249  88.1710 271.9426 15.08851746131210,6917.844,95.437,540.574,538.845,0.0
51735.0,STARLINK-3517,PAYLOAD,2024-06-29 05:48:44,15.08837035,0.0001163,53.2148,215.4419,100.7158,259.3965,4.4093e-05,4.14e-06,0.0,0 STARLINK-3517,1 51735U 22016X   24181.24217747  .00000414  00000-0  44093-4 0  9995,2 51735  53.2148 215.4419 0001163 100.7158 259.3965 15.08837035131313,6917.889,95.438,540.559,538.95,0.0
51735.0,STARLINK-3517,PAYLOAD,2024-06-29 07:24:07,15.08837528,0.0001179,53.2148,215.1444,100.2531,259.8594,4.8492e-05,4.84e-06,0.0,0 STARLINK-3517,1 51735U 22016X   24181.30841726  .00000484  00000-0  48492-4 0  9996,2 51735  53.2148 215.1444 0001179 100.2531 259.8594 15.08837528130213,6917.888,95.438,540.569,538.937,0.0
51735.0,STARLINK-3517,PAYLOAD,2024-06-30 08:50:17,15.0883729,0.000111,53.2147,210.3868,91.9913,268.1206,-3.9292e-05,-9.13e-06,0.0,0 STARLINK-3517,1 51735U 22016X   24182.36826279 -.00000913  00000-0 -39292-4 0  9996,2 51735  53.2147 210.3868 0001110  91.9913 268.1206 15.08837290131483,6917.889,95.438,540.522,538.986,0.0
51735.0,STARLINK-3517,PAYLOAD,2024-07-01 08:41:05,15.08832821,0.0001172,53.2146,205.9247,93.2752,266.8375,7.4815e-05,9.03e-06,0.0,0 STARLINK-3517,1 51735U 22016X   24183.36186483  .00000903  00000-0  74815-4 0  9990,2 51735  53.2146 205.9247 0001172  93.2752 266.8375 15.08832821130528,6917.902,95.438,540.578,538.957,0.0
51735.0,STARLINK-3517,PAYLOAD,2024-07-01 18:13:23,15.08836815,0.0001204,53.215,204.1401,90.7496,269.3634,0.00010011,1.306e-05,0.0,0 STARLINK-3517,1 51735U 22016X   24183.75930287  .00001306  00000-0  10011-3 0  9997,2 51735  53.2150 204.1401 0001204  90.7496 269.3634 15.08836815131691,6917.89,95.438,540.588,538.922,0.0
51735.0,STARLINK-3517,PAYLOAD,2024-07-02 08:31:52,15.08837244,0.0001285,53.2155,201.4647,94.7418,265.3721,9.8099e-05,1.274e-05,0.0,0 STARLINK-3517,1 51735U 22016X   24184.35546501  .00001274  00000-0  98099-4 0  9993,2 51735  53.2155 201.4647 0001285  94.7418 265.3721 15.08837244130672,6917.889,95.438,540.643,538.865,0.0
51735.0,STARLINK-3517,PAYLOAD,2024-07-02 18:04:10,15.08841821,0.0001298,53.2157,199.6805,93.7428,266.3712,0.00010347,1.359e-05,0.0,0 STARLINK-3517,1 51735U 22016X   24184.75290195  .00001359  00000-0  10347-3 0  9995,2 51735  53.2157 199.6805 0001298  93.7428 266.3712 15.08841821130736,6917.875,95.437,540.638,538.842,0.0
51735.0,STARLINK-3517,PAYLOAD,2024-07-03 05:11:53,15.0883401,0.0001376,53.2163,197.5993,92.8492,267.2658,3.8301e-05,3.22e-06,0.0,0 STARLINK-3517,1 51735U 22016X   24185.21658964  .00000322  00000-0  38301-4 0  9999,2 51735  53.2163 197.5993 0001376  92.8492 267.2658 15.08834010131918,6917.899,95.438,540.716,538.812,0.0
51735.0,STARLINK-3517,PAYLOAD,2024-07-03 17:54:58,15.08840268,0.0001353,53.2159,195.2198,88.2063,271.9084,4.7472e-05,4.68e-06,0.0,0 STARLINK-3517,1 51735U 22016X   24185.74650585  .00000468  00000-0  47472-4 0  9998,2 51735  53.2159 195.2198 0001353  88.2063 271.9084 15.08840268130885,6917.88,95.438,540.681,538.809,0.0
51735.0,STARLINK-3517,PAYLOAD,2024-07-04 08:13:26,15.08841296,0.0001339,53.2158,192.5435,87.9584,272.1562,3.7933e-05,3.16e-06,0.0,0 STARLINK-3517,1 51735U 22016X   24186.34266515  .00000316  00000-0  37933-4 0  9994,2 51735  53.2158 192.5435 0001339  87.9584 272.1562 15.08841296132086,6917.876,95.437,540.668,538.815,0.0
51735.0,STARLINK-3517,PAYLOAD,2024-07-04 17:45:44,15.08844844,0.0001349,53.2159,190.7596,87.3651,272.7496,3.6503e-05,2.93e-06,0.0,0 STARLINK-3517,1 51735U 22016X   24186.74010202  .00000293  00000-0  36503-4 0  9994,2 51735  53.2159 190.7596 0001349  87.3651 272.7496 15.08844844131033,6917.866,95.437,540.664,538.797,0.0
51735.0,STARLINK-3517,PAYLOAD,2024-07-05 09:39:36,15.0884256,0.0001269,53.2155,187.7857,90.0197,270.094,7.0776e-05,8.39e-06,0.0,0 STARLINK-3517,1 51735U 22016X   24187.40250189  .00000839  00000-0  70776-4 0  9994,2 51735  53.2155 187.7857 0001269  90.0197 270.0940 15.08842560132244,6917.873,95.437,540.615,538.86,0.0
51735.0,STARLINK-3517,PAYLOAD,2024-07-05 17:36:31,15.08845086,0.0001266,53.2154,186.2989,89.8413,270.2724,7.6721e-05,9.34e-06,0.0,0 STARLINK-3517,1 51735U 22016X   24187.73369936  .00000934  00000-0  76721-4 0  9993,2 51735  53.2154 186.2989 0001266  89.8413 270.2724 15.08845086131187,6917.865,95.437,540.606,538.854,0.0
51735.0,STARLINK-3517,PAYLOAD,2024-07-06 06:19:37,15.08839223,0.0001303,53.216,183.9203,89.563,270.5511,3.2562e-05,2.3e-06,0.0,0 STARLINK-3517,1 51735U 22016X   24188.26362397  .00000230  00000-0  32562-4 0  9990,2 51735  53.2160 183.9203 0001303  89.5630 270.5511 15.08839223131269,6917.883,95.438,540.649,538.846,0.0
51735.0,STARLINK-3517,PAYLOAD,2024-07-07 09:21:10,15.08838354,0.0001333,53.2163,178.8649,91.1663,268.9482,-6.0797e-06,-3.85e-06,0.0,0 STARLINK-3517,1 51735U 22016X   24189.38970464 -.00000385  00000-0 -60797-5 0  9999,2 51735  53.2163 178.8649 0001333  91.1663 268.9482 15.08838354132541,6917.885,95.438,540.673,538.828,0.0
51735.0,STARLINK-3517,PAYLOAD,2024-07-08 04:25:48,15.08836097,0.0001277,53.2159,175.2955,88.8812,271.2326,2.513e-05,1.12e-06,0.0,0 STARLINK-3517,1 51735U 22016X   24190.18458569  .00000112  00000-0  25130-4 0  9993,2 51735  53.2159 175.2955 0001277  88.8812 271.2326 15.08836097131559,6917.892,95.438,540.641,538.874,0.0
51735.0,STARLINK-3517,PAYLOAD,2024-07-08 15:33:29,15.08840162,0.0001298,53.2162,173.2142,88.6656,271.4485,5.5194e-05,5.91e-06,0.0,0 STARLINK-3517,1 51735U 22016X   24190.64826284  .00000591  00000-0  55194-4 0  9991,2 51735  53.2162 173.2142 0001298  88.6656 271.4485 15.08840162132733,6917.88,95.438,540.643,538.847,0.0
51735.0,STARLINK-3517,PAYLOAD,2024-07-08 21:55:02,15.08835293,0.0001396,53.217,172.027,92.176,267.9392,4.0999e-05,3.65e-06,0.0,0 STARLINK-3517,1 51735U 22016X   24190.91322725  .00000365  00000-0  40999-4 0  9998,2 51735  53.2170 172.0270 0001396  92.1760 267.9392 15.08835293131663,6917.895,95.438,540.726,538.794,0.0
51735.0,STARLINK-3517,PAYLOAD,2024-07-09 04:16:35,15.08832882,0.0001439,53.2175,170.8369,92.1557,267.96,2.0146e-05,3.3e-07,0.0,0 STARLINK-3517,1 51735U 22016X   24191.17819038  .00000033  00000-0  20146-4 0  9999,2 51735  53.2175 170.8369 0001439  92.1557 267.9600 15.08832882132816,6917.902,95.438,540.763,538.772,0.0
